{"type": "FeatureCollection", "features": [ {"type": "Feature", "properties": {"norad_id": 29795, "name": "FENGYUN 1C DEB", "group": "fengyun-1c-debris", "lat": -18.3142758227214, "lon": -57.383810035223185, "alt_km": 871.2679988598338, "timestamp": "2025-12-22T14:45:57.673805+00:00", "meta": {"OBJECT_NAME": "FENGYUN 1C DEB", "OBJECT_ID": "1999-025CM", "EPOCH": "2025-12-20T21:03:52.706304", "MEAN_MOTION": 13.92913002, "ECCENTRICITY": 0.0111105, "INCLINATION": 98.871, "RA_OF_ASC_NODE": 123.9141, "ARG_OF_PERICENTER": 253.7027, "MEAN_ANOMALY": 237.5062, "EPHEMERIS_TYPE": 0, "CLASSIFICATION_TYPE": "U", "NORAD_CAT_ID": 29795, "ELEMENT_SET_NO": 999, "REV_AT_EPOCH": 96178, "BSTAR": 0.00019603, "MEAN_MOTION_DOT": 2.25e-06, "MEAN_MOTION_DDOT": 0}, "tle": {"line1": "1 29795U 99025CM  25354.87769336  .00000225  00000+0  19603-3 0  9995", "line2": "2 29795  98.8710 123.9141 0111105 253.7027 237.5062 13.92913002961789"}}, "geometry": {"type": "Point", "coordinates": [-57.383810035223185, -18.3142758227214]}}, {"type": "Feature", "properties": {"norad_id": 29796, "name": "FENGYUN 1C DEB", "group": "fengyun-1c-debris", "lat": 27.019999137290494, "lon": -127.05625219878787, "alt_km": 848.1137853805194, "timestamp": "2025-12-22T14:45:57.673815+00:00", "meta": {"OBJECT_NAME": "FENGYUN 1C DEB", "OBJECT_ID": "1999-025CN", "EPOCH": "2025-12-22T02:13:57.304704", "MEAN_MOTION": 14.12357767, "ECCENTRICITY": 0.00522978, "INCLINATION": 98.8638, "RA_OF_ASC_NODE": 47.863, "ARG_OF_PERICENTER": 241.1659, "MEAN_ANOMALY": 138.1824, "EPHEMERIS_TYPE": 0, "CLASSIFICATION_TYPE": "U", "NORAD_CAT_ID": 29796, "ELEMENT_SET_NO": 999, "REV_AT_EPOCH": 97193, "BSTAR": 0.00059657026, "MEAN_MOTION_DOT": 1.069e-05, "MEAN_MOTION_DDOT": 0}, "tle": {"line1": "1 29796U 99025CN  25356.09302436  .00001069  00000+0  59657-3 0  9996", "line2": "2 29796  98.8638  47.8630 0052297 241.1659 138.1824 14.12357767971937"}}, "geometry": {"type": "Point", "coordinates": [-127.05625219878787, 27.019999137290494]}}, {"type": "Feature", "properties": {"norad_id": 29798, "name": "FENGYUN 1C DEB", "group": "fengyun-1c-debris", "lat": 60.41227232665798, "lon": 43.90750592648018, "alt_km": 970.5185319443126, "timestamp": "2025-12-22T14:45:57.673826+00:00", "meta": {"OBJECT_NAME": "FENGYUN 1C DEB", "OBJECT_ID": "1999-025CQ", "EPOCH": "2025-12-22T02:44:26.663136", "MEAN_MOTION": 13.99609007, "ECCENTRICITY": 0.01120028, "INCLINATION": 99.2953, "RA_OF_ASC_NODE": 60.1634, "ARG_OF_PERICENTER": 246.9252, "MEAN_ANOMALY": 171.5917, "EPHEMERIS_TYPE": 0, "CLASSIFICATION_TYPE": "U", "NORAD_CAT_ID": 29798, "ELEMENT_SET_NO": 999, "REV_AT_EPOCH": 96056, "BSTAR": 0.0013240999, "MEAN_MOTION_DOT": 1.995e-05, "MEAN_MOTION_DDOT": 0}, "tle": {"line1": "1 29798U 99025CQ  25356.11419749  .00001995  00000+0  13241-2 0  9993", "line2": "2 29798  99.2953  60.1634 0112002 246.9252 171.5917 13.99609007960561"}}, "geometry": {"type": "Point", "coordinates": [43.90750592648018, 60.41227232665798]}}, {"type": "Feature", "properties": {"norad_id": 29800, "name": "FENGYUN 1C DEB", "group": "fengyun-1c-debris", "lat": -12.89219134497608, "lon": -164.62619519717913, "alt_km": 806.3432222282718, "timestamp": "2025-12-22T14:45:57.673836+00:00", "meta": {"OBJECT_NAME": "FENGYUN 1C DEB", "OBJECT_ID": "1999-025CS", "EPOCH": "2025-12-21T12:49:39.480672", "MEAN_MOTION": 13.98611133, "ECCENTRICITY": 0.01337367, "INCLINATION": 98.2899, "RA_OF_ASC_NODE": 16.3084, "ARG_OF_PERICENTER": 202.744, "MEAN_ANOMALY": 311.7244, "EPHEMERIS_TYPE": 0, "CLASSIFICATION_TYPE": "U", "NORAD_CAT_ID": 29800, "ELEMENT_SET_NO": 999, "REV_AT_EPOCH": 95699, "BSTAR": 0.0014416709, "MEAN_MOTION_DOT": 2.195e-05, "MEAN_MOTION_DDOT": 0}, "tle": {"line1": "1 29800U 99025CS  25355.53448473  .00002195  00000+0  14417-2 0  9997", "line2": "2 29800  98.2899  16.3084 0133736 202.7440 311.7244 13.98611133956996"}}, "geometry": {"type": "Point", "coordinates": [-164.62619519717913, -12.89219134497608]}}, {"type": "Feature", "properties": {"norad_id": 29801, "name": "FENGYUN 1C DEB", "group": "fengyun-1c-debris", "lat": 3.7162566789654843, "lon": -102.7374204927494, "alt_km": 817.1491197770729, "timestamp": "2025-12-22T14:45:57.673847+00:00", "meta": {"OBJECT_NAME": "FENGYUN 1C DEB", "OBJECT_ID": "1999-025CT", "EPOCH": "2025-12-22T06:56:53.161152", "MEAN_MOTION": 14.35907091, "ECCENTRICITY": 0.01028651, "INCLINATION": 98.7951, "RA_OF_ASC_NODE": 257.5065, "ARG_OF_PERICENTER": 238.9149, "MEAN_ANOMALY": 241.0934, "EPHEMERIS_TYPE": 0, "CLASSIFICATION_TYPE": "U", "NORAD_CAT_ID": 29801, "ELEMENT_SET_NO": 999, "REV_AT_EPOCH": 99078, "BSTAR": 0.00015347649, "MEAN_MOTION_DOT": 4.24e-06, "MEAN_MOTION_DDOT": 0}, "tle": {"line1": "1 29801U 99025CT  25356.28950418  .00000424  00000+0  15348-3 0  9996", "line2": "2 29801  98.7951 257.5065 0102865 238.9149 241.0934 14.35907091990784"}}, "geometry": {"type": "Point", "coordinates": [-102.7374204927494, 3.7162566789654843]}}, {"type": "Feature", "properties": {"norad_id": 29802, "name": "FENGYUN 1C DEB", "group": "fengyun-1c-debris", "lat": -26.707626135109827, "lon": -78.21838217204397, "alt_km": 695.4160167725531, "timestamp": "2025-12-22T14:45:57.673858+00:00", "meta": {"OBJECT_NAME": "FENGYUN 1C DEB", "OBJECT_ID": "1999-025CU", "EPOCH": "2025-12-22T05:52:44.440320", "MEAN_MOTION": 14.62543095, "ECCENTRICITY": 0.00372488, "INCLINATION": 98.619, "RA_OF_ASC_NODE": 105.7718, "ARG_OF_PERICENTER": 308.7187, "MEAN_ANOMALY": 110.1202, "EPHEMERIS_TYPE": 0, "CLASSIFICATION_TYPE": "U", "NORAD_CAT_ID": 29802, "ELEMENT_SET_NO": 999, "REV_AT_EPOCH": 98612, "BSTAR": 0.0028917917, "MEAN_MOTION_DOT": 0.00014795, "MEAN_MOTION_DDOT": 0}, "tle": {"line1": "1 29802U 99025CU  25356.24495880  .00014795  00000+0  28918-2 0  9992", "line2": "2 29802  98.6190 105.7718 0037248 308.7187 110.1202 14.62543095986125"}}, "geometry": {"type": "Point", "coordinates": [-78.21838217204397, -26.707626135109827]}}, {"type": "Feature", "properties": {"norad_id": 29804, "name": "FENGYUN 1C DEB", "group": "fengyun-1c-debris", "lat": -80.21515562896253, "lon": 68.5131387912709, "alt_km": 815.8164195809668, "timestamp": "2025-12-22T14:45:57.673868+00:00", "meta": {"OBJECT_NAME": "FENGYUN 1C DEB", "OBJECT_ID": "1999-025CW", "EPOCH": "2025-12-21T19:30:21.896352", "MEAN_MOTION": 14.04323706, "ECCENTRICITY": 0.00969502, "INCLINATION": 98.8047, "RA_OF_ASC_NODE": 3.7461, "ARG_OF_PERICENTER": 276.2585, "MEAN_ANOMALY": 263.1887, "EPHEMERIS_TYPE": 0, "CLASSIFICATION_TYPE": "U", "NORAD_CAT_ID": 29804, "ELEMENT_SET_NO": 999, "REV_AT_EPOCH": 97021, "BSTAR": -5.0847496e-05, "MEAN_MOTION_DOT": -1.28e-06, "MEAN_MOTION_DDOT": 0}, "tle": {"line1": "1 29804U 99025CW  25355.81275343 -.00000128  00000+0 -50847-4 0  9991", "line2": "2 29804  98.8047   3.7461 0096950 276.2585 263.1887 14.04323706970210"}}, "geometry": {"type": "Point", "coordinates": [68.5131387912709, -80.21515562896253]}}, {"type": "Feature", "properties": {"norad_id": 29805, "name": "FENGYUN 1C DEB", "group": "fengyun-1c-debris", "lat": 31.02877369860199, "lon": 42.008413457453265, "alt_km": 1125.7515801239551, "timestamp": "2025-12-22T14:45:57.673879+00:00", "meta": {"OBJECT_NAME": "FENGYUN 1C DEB", "OBJECT_ID": "1999-025CX", "EPOCH": "2025-12-22T02:21:41.922432", "MEAN_MOTION": 13.72660389, "ECCENTRICITY": 0.01883356, "INCLINATION": 99.4536, "RA_OF_ASC_NODE": 47.2504, "ARG_OF_PERICENTER": 205.3785, "MEAN_ANOMALY": 153.8021, "EPHEMERIS_TYPE": 0, "CLASSIFICATION_TYPE": "U", "NORAD_CAT_ID": 29805, "ELEMENT_SET_NO": 999, "REV_AT_EPOCH": 94831, "BSTAR": 0.00015933944, "MEAN_MOTION_DOT": 1.21e-06, "MEAN_MOTION_DDOT": 0}, "tle": {"line1": "1 29805U 99025CX  25356.09840188  .00000121  00000+0  15934-3 0  9996", "line2": "2 29805  99.4536  47.2504 0188335 205.3785 153.8021 13.72660389948312"}}, "geometry": {"type": "Point", "coordinates": [42.008413457453265, 31.02877369860199]}}, {"type": "Feature", "properties": {"norad_id": 29806, "name": "FENGYUN 1C DEB", "group": "fengyun-1c-debris", "lat": -15.27700147426898, "lon": -170.27619788246096, "alt_km": 839.259739037936, "timestamp": "2025-12-22T14:45:57.673889+00:00", "meta": {"OBJECT_NAME": "FENGYUN 1C DEB", "OBJECT_ID": "1999-025CY", "EPOCH": "2025-12-22T07:09:02.263968", "MEAN_MOTION": 14.12024584, "ECCENTRICITY": 0.00279049, "INCLINATION": 98.7122, "RA_OF_ASC_NODE": 11.8159, "ARG_OF_PERICENTER": 224.1005, "MEAN_ANOMALY": 159.3261, "EPHEMERIS_TYPE": 0, "CLASSIFICATION_TYPE": "U", "NORAD_CAT_ID": 29806, "ELEMENT_SET_NO": 999, "REV_AT_EPOCH": 97274, "BSTAR": 0.00046891478, "MEAN_MOTION_DOT": 8.19e-06, "MEAN_MOTION_DDOT": 0}, "tle": {"line1": "1 29806U 99025CY  25356.29794287  .00000819  00000+0  46891-3 0  9997", "line2": "2 29806  98.7122  11.8159 0027904 224.1005 159.3261 14.12024584972744"}}, "geometry": {"type": "Point", "coordinates": [-170.27619788246096, -15.27700147426898]}}, {"type": "Feature", "properties": {"norad_id": 29807, "name": "FENGYUN 1C DEB", "group": "fengyun-1c-debris", "lat": 39.58377589995051, "lon": -171.7305532302274, "alt_km": 915.9452045103126, "timestamp": "2025-12-22T14:45:57.673899+00:00", "meta": {"OBJECT_NAME": "FENGYUN 1C DEB", "OBJECT_ID": "1999-025CZ", "EPOCH": "2025-12-22T05:34:35.697504", "MEAN_MOTION": 14.08666386, "ECCENTRICITY": 0.00791682, "INCLINATION": 98.7547, "RA_OF_ASC_NODE": 0.578, "ARG_OF_PERICENTER": 304.9267, "MEAN_ANOMALY": 54.4483, "EPHEMERIS_TYPE": 0, "CLASSIFICATION_TYPE": "U", "NORAD_CAT_ID": 29807, "ELEMENT_SET_NO": 999, "REV_AT_EPOCH": 97228, "BSTAR": 0.00028518372, "MEAN_MOTION_DOT": 4.62e-06, "MEAN_MOTION_DDOT": 0}, "tle": {"line1": "1 29807U 99025CZ  25356.23235761  .00000462  00000+0  28518-3 0  9999", "line2": "2 29807  98.7547   0.5780 0079168 304.9267  54.4483 14.08666386972284"}}, "geometry": {"type": "Point", "coordinates": [-171.7305532302274, 39.58377589995051]}}]}